FENGYUN 1C DEB          
1 35156U 99025DML 26062.19146822  .00000670  00000+0  39683-3 0  9998
2 35156  98.7606  51.5490 0035477 282.5609  77.1595 14.10746063651783
FENGYUN 1C DEB          
1 35159U 99025DMP 26059.70681200  .00007179  00000+0  20065-2 0  9992
2 35159  98.8331 143.1359 0009314 281.1791 235.3125 14.46462630626077
FENGYUN 1C DEB          
1 35160U 99025DMQ 26058.58376768  .00000764  00000+0  23541-3 0  9995
2 35160  99.1577 182.8214 0175820  15.5424 345.1063 14.36228838660341
FENGYUN 1C DEB          
1 35165U 99025DMV 26062.76998043  .00006886  00000+0  24324-2 0  9991
2 35165  98.8700 161.8045 0023121 179.5486 180.5723 14.34840550908825
FENGYUN 1C DEB          
1 35167U 99025DMX 26062.42728501  .00003549  00000+0  10168-2 0  9990
2 35167  98.4569  58.5285 0227887 325.9508  32.7228 14.31547487711742
FENGYUN 1C DEB          
1 35168U 99025DMY 26062.48655826  .00000568  00000+0  28850-3 0  9992
2 35168  98.2690 313.6207 0123818 254.1243 104.6256 14.15639774590662
FENGYUN 1C DEB          
1 35169U 99025DMZ 26061.16302159  .00002658  00000+0  49331-3 0  9994
2 35169  99.1215 317.5769 0149429 226.8301 132.0329 14.59290646669380
FENGYUN 1C DEB          
1 35171U 99025DNB 26059.90078287  .00002063  00000+0  14313-2 0  9999
2 35171  99.0109 214.5046 0138431 105.7370 255.9109 13.95465923896485
FENGYUN 1C DEB          
1 35173U 99025DND 26059.98749573  .00001467  00000+0  14546-2 0  9997
2 35173  99.7823 133.8210 0485133  23.2306 338.9968 13.37638949668758
FENGYUN 1C DEB          
1 35174U 99025DNE 26056.20737733  .00041097  00000+0  23504-2 0  9992
2 35174  98.9651  46.9713 0133464 302.0575  56.7743 15.05222561912837
FENGYUN 1C DEB          
1 35175U 99025DNF 26038.76139310  .00000828  00000+0  39141-3 0  9993
2 35175  98.5776  50.4675 0058842 114.3565 246.3771 14.21410964620453
FENGYUN 1C DEB          
1 35176U 99025DNG 26060.81840366  .00000618  00000+0  32336-3 0  9991
2 35176  98.5647  49.6321 0053190 187.1995 172.8423 14.17135608920482
FENGYUN 1C DEB          
1 35180U 99025DNL 26061.26107068  .00017194  00000+0  72155-2 0  9990
2 35180  99.7254 228.6072 0493480 171.9988 188.9413 13.75865554 11277
FENGYUN 1C DEB          
1 35191U 99025DNX 26058.66677785  .00000300  00000+0  26107-3 0  9998
2 35191  99.0255  43.3879 0102972   0.5183 359.6066 13.91249425889711
FENGYUN 1C DEB          
1 35194U 99025DPA 26062.49464101  .00007702  00000+0  14392-2 0  9998
2 35194  98.9395 157.2539 0112821 188.3980 171.5333 14.61170215665694
FENGYUN 1C DEB          
1 35195U 99025DPB 26055.52121465  .00004911  00000+0  10354-2 0  9991
2 35195  98.9771 160.4950 0102312 203.8638 155.7797 14.56700095920009
