[{"OBJECT_NAME":"FENGYUN 1C DEB","OBJECT_ID":"1999-025DML","EPOCH":"2026-03-03T04:35:42.854208","MEAN_MOTION":14.10746063,"ECCENTRICITY":0.00354777,"INCLINATION":98.7606,"RA_OF_ASC_NODE":51.549,"ARG_OF_PERICENTER":282.5609,"MEAN_ANOMALY":77.1595,"EPHEMERIS_TYPE":0,"CLASSIFICATION_TYPE":"U","NORAD_CAT_ID":35156,"ELEMENT_SET_NO":999,"REV_AT_EPOCH":65178,"BSTAR":0.00039683142,"MEAN_MOTION_DOT":6.7e-6,"MEAN_MOTION_DDOT":0},{"OBJECT_NAME":"FENGYUN 1C DEB","OBJECT_ID":"1999-025DMP","EPOCH":"2026-02-28T16:57:48.556800","MEAN_MOTION":14.4646263,"ECCENTRICITY":0.00093144,"INCLINATION":98.8331,"RA_OF_ASC_NODE":143.1359,"ARG_OF_PERICENTER":281.1791,"MEAN_ANOMALY":235.3125,"EPHEMERIS_TYPE":0,"CLASSIFICATION_TYPE":"U","NORAD_CAT_ID":35159,"ELEMENT_SET_NO":999,"REV_AT_EPOCH":62607,"BSTAR":0.0020065113,"MEAN_MOTION_DOT":7.179e-5,"MEAN_MOTION_DDOT":0},{"OBJECT_NAME":"FENGYUN 1C DEB","OBJECT_ID":"1999-025DMQ","EPOCH":"2026-02-27T14:00:37.527552","MEAN_MOTION":14.36228838,"ECCENTRICITY":0.01758208,"INCLINATION":99.1577,"RA_OF_ASC_NODE":182.8214,"ARG_OF_PERICENTER":15.5424,"MEAN_ANOMALY":345.1063,"EPHEMERIS_TYPE":0,"CLASSIFICATION_TYPE":"U","NORAD_CAT_ID":35160,"ELEMENT_SET_NO":999,"REV_AT_EPOCH":66034,"BSTAR":0.00023540781,"MEAN_MOTION_DOT":7.64e-6,"MEAN_MOTION_DDOT":0},{"OBJECT_NAME":"FENGYUN 1C DEB","OBJECT_ID":"1999-025DMV","EPOCH":"2026-03-03T18:28:46.309152","MEAN_MOTION":14.3484055,"ECCENTRICITY":0.0023121,"INCLINATION":98.87,"RA_OF_ASC_NODE":161.8045,"ARG_OF_PERICENTER":179.5486,"MEAN_ANOMALY":180.5723,"EPHEMERIS_TYPE":0,"CLASSIFICATION_TYPE":"U","NORAD_CAT_ID":35165,"ELEMENT_SET_NO":999,"REV_AT_EPOCH":90882,"BSTAR":0.0024324394,"MEAN_MOTION_DOT":6.886e-5,"MEAN_MOTION_DDOT":0},{"OBJECT_NAME":"FENGYUN 1C DEB","OBJECT_ID":"1999-025DMX","EPOCH":"2026-03-03T10:15:17.424864","MEAN_MOTION":14.31547487,"ECCENTRICITY":0.02278879,"INCLINATION":98.4569,"RA_OF_ASC_NODE":58.5285,"ARG_OF_PERICENTER":325.9508,"MEAN_ANOMALY":32.7228,"EPHEMERIS_TYPE":0,"CLASSIFICATION_TYPE":"U","NORAD_CAT_ID":35167,"ELEMENT_SET_NO":999,"REV_AT_EPOCH":71174,"BSTAR":0.0010168077,"MEAN_MOTION_DOT":3.549e-5,"MEAN_MOTION_DDOT":0},{"OBJECT_NAME":"FENGYUN 1C DEB","OBJECT_ID":"1999-025DMY","EPOCH":"2026-03-03T11:40:38.633664","MEAN_MOTION":14.15639774,"ECCENTRICITY":0.01238186,"INCLINATION":98.269,"RA_OF_ASC_NODE":313.6207,"ARG_OF_PERICENTER":254.1243,"MEAN_ANOMALY":104.6256,"EPHEMERIS_TYPE":0,"CLASSIFICATION_TYPE":"U","NORAD_CAT_ID":35168,"ELEMENT_SET_NO":999,"REV_AT_EPOCH":59066,"BSTAR":0.0002885038,"MEAN_MOTION_DOT":5.68e-6,"MEAN_MOTION_DDOT":0},{"OBJECT_NAME":"FENGYUN 1C DEB","OBJECT_ID":"1999-025DMZ","EPOCH":"2026-03-02T03:54:45.065376","MEAN_MOTION":14.59290646,"ECCENTRICITY":0.01494299,"INCLINATION":99.1215,"RA_OF_ASC_NODE":317.5769,"ARG_OF_PERICENTER":226.8301,"MEAN_ANOMALY":132.0329,"EPHEMERIS_TYPE":0,"CLASSIFICATION_TYPE":"U","NORAD_CAT_ID":35169,"ELEMENT_SET_NO":999,"REV_AT_EPOCH":66938,"BSTAR":0.00049331105,"MEAN_MOTION_DOT":2.658e-5,"MEAN_MOTION_DDOT":0},{"OBJECT_NAME":"FENGYUN 1C DEB","OBJECT_ID":"1999-025DNB","EPOCH":"2026-02-28T21:37:07.639968","MEAN_MOTION":13.95465923,"ECCENTRICITY":0.0138431,"INCLINATION":99.0109,"RA_OF_ASC_NODE":214.5046,"ARG_OF_PERICENTER":105.737,"MEAN_ANOMALY":255.9109,"EPHEMERIS_TYPE":0,"CLASSIFICATION_TYPE":"U","NORAD_CAT_ID":35171,"ELEMENT_SET_NO":999,"REV_AT_EPOCH":89648,"BSTAR":0.0014313,"MEAN_MOTION_DOT":2.063e-5,"MEAN_MOTION_DDOT":0},{"OBJECT_NAME":"FENGYUN 1C DEB","OBJECT_ID":"1999-025DND","EPOCH":"2026-02-28T23:41:59.631072","MEAN_MOTION":13.37638949,"ECCENTRICITY":0.04851335,"INCLINATION":99.7823,"RA_OF_ASC_NODE":133.821,"ARG_OF_PERICENTER":23.2306,"MEAN_ANOMALY":338.9968,"EPHEMERIS_TYPE":0,"CLASSIFICATION_TYPE":"U","NORAD_CAT_ID":35173,"ELEMENT_SET_NO":999,"REV_AT_EPOCH":66875,"BSTAR":0.001454587,"MEAN_MOTION_DOT":1.467e-5,"MEAN_MOTION_DDOT":0},{"OBJECT_NAME":"FENGYUN 1C DEB","OBJECT_ID":"1999-025DNE","EPOCH":"2026-02-25T04:58:37.401312","MEAN_MOTION":15.05222561,"ECCENTRICITY":0.0133464,"INCLINATION":98.9651,"RA_OF_ASC_NODE":46.9713,"ARG_OF_PERICENTER":302.0575,"MEAN_ANOMALY":56.7743,"EPHEMERIS_TYPE":0,"CLASSIFICATION_TYPE":"U","NORAD_CAT_ID":35174,"ELEMENT_SET_NO":999,"REV_AT_EPOCH":91283,"BSTAR":0.0023504,"MEAN_MOTION_DOT":0.00041097,"MEAN_MOTION_DDOT":0},{"OBJECT_NAME":"FENGYUN 1C DEB","OBJECT_ID":"1999-025DNF","EPOCH":"2026-02-07T18:16:24.363840","MEAN_MOTION":14.21410964,"ECCENTRICITY":0.00588425,"INCLINATION":98.5776,"RA_OF_ASC_NODE":50.4675,"ARG_OF_PERICENTER":114.3565,"MEAN_ANOMALY":246.3771,"EPHEMERIS_TYPE":0,"CLASSIFICATION_TYPE":"U","NORAD_CAT_ID":35175,"ELEMENT_SET_NO":999,"REV_AT_EPOCH":62045,"BSTAR":0.00039140678,"MEAN_MOTION_DOT":8.28e-6,"MEAN_MOTION_DDOT":0},{"OBJECT_NAME":"FENGYUN 1C DEB","OBJECT_ID":"1999-025DNG","EPOCH":"2026-03-01T19:38:30.076224","MEAN_MOTION":14.17135608,"ECCENTRICITY":0.00531903,"INCLINATION":98.5647,"RA_OF_ASC_NODE":49.6321,"ARG_OF_PERICENTER":187.1995,"MEAN_ANOMALY":172.8423,"EPHEMERIS_TYPE":0,"CLASSIFICATION_TYPE":"U","NORAD_CAT_ID":35176,"ELEMENT_SET_NO":999,"REV_AT_EPOCH":92048,"BSTAR":0.00032336079,"MEAN_MOTION_DOT":6.18e-6,"MEAN_MOTION_DDOT":0},{"OBJECT_NAME":"FENGYUN 1C DEB","OBJECT_ID":"1999-025DNL","EPOCH":"2026-03-02T06:15:56.506752","MEAN_MOTION":13.75865554,"ECCENTRICITY":0.04934809,"INCLINATION":99.7254,"RA_OF_ASC_NODE":228.6072,"ARG_OF_PERICENTER":171.9988,"MEAN_ANOMALY":188.9413,"EPHEMERIS_TYPE":0,"CLASSIFICATION_TYPE":"U","NORAD_CAT_ID":35180,"ELEMENT_SET_NO":999,"REV_AT_EPOCH":1127,"BSTAR":0.0072155204,"MEAN_MOTION_DOT":0.00017194,"MEAN_MOTION_DDOT":0},{"OBJECT_NAME":"FENGYUN 1C DEB","OBJECT_ID":"1999-025DNX","EPOCH":"2026-02-27T16:00:09.606240","MEAN_MOTION":13.91249425,"ECCENTRICITY":0.01029729,"INCLINATION":99.0255,"RA_OF_ASC_NODE":43.3879,"ARG_OF_PERICENTER":0.5183,"MEAN_ANOMALY":359.6066,"EPHEMERIS_TYPE":0,"CLASSIFICATION_TYPE":"U","NORAD_CAT_ID":35191,"ELEMENT_SET_NO":999,"REV_AT_EPOCH":88971,"BSTAR":0.00026106597,"MEAN_MOTION_DOT":3.0e-6,"MEAN_MOTION_DDOT":0},{"OBJECT_NAME":"FENGYUN 1C DEB","OBJECT_ID":"1999-025DPA","EPOCH":"2026-03-03T11:52:16.983264","MEAN_MOTION":14.61170215,"ECCENTRICITY":0.01128212,"INCLINATION":98.9395,"RA_OF_ASC_NODE":157.2539,"ARG_OF_PERICENTER":188.398,"MEAN_ANOMALY":171.5333,"EPHEMERIS_TYPE":0,"CLASSIFICATION_TYPE":"U","NORAD_CAT_ID":35194,"ELEMENT_SET_NO":999,"REV_AT_EPOCH":66569,"BSTAR":0.0014391564,"MEAN_MOTION_DOT":7.702e-5,"MEAN_MOTION_DDOT":0},{"OBJECT_NAME":"FENGYUN 1C DEB","OBJECT_ID":"1999-025DPB","EPOCH":"2026-02-24T12:30:32.945760","MEAN_MOTION":14.56700095,"ECCENTRICITY":0.01023121,"INCLINATION":98.9771,"RA_OF_ASC_NODE":160.495,"ARG_OF_PERICENTER":203.8638,"MEAN_ANOMALY":155.7797,"EPHEMERIS_TYPE":0,"CLASSIFICATION_TYPE":"U","NORAD_CAT_ID":35195,"ELEMENT_SET_NO":999,"REV_AT_EPOCH":92000,"BSTAR":0.0010353677,"MEAN_MOTION_DOT":4.911e-5,"MEAN_MOTION_DDOT":0}]
